{"type":"FeatureCollection","features":[{"type":"Feature","properties":{"ac":"Baghmundi","blocks":["Baghmundi","Jhalda I"],"labelAt":[86.01248649434577,23.279555489349303]},"geometry":{"type":"Polygon","coordinates":[[[85.81972,23.26888],[85.82358,23.25905],[85.83861,23.24683],[85.83622,23.23858],[85.83969,23.22985],[85.83646,23.22266],[85.83733,23.21996],[85.84826,23.22219],[85.85828,23.2206],[85.86241,23.22253],[85.86439,23.2221],[85.86839,23.21828],[85.87655,23.2049],[85.88302,23.19737],[85.88143,23.17317],[85.88247,23.16826],[85.89454,23.15513],[85.90866,23.15397],[85.91411,23.14913],[85.92771,23.14857],[85.9289,23.15105],[85.93695,23.15024],[85.93825,23.15177],[85.94269,23.15304],[85.95137,23.15173],[85.957,23.16105],[85.97172,23.15709],[85.97596,23.15479],[85.99244,23.15194],[86.00116,23.14835],[86.01345,23.14791],[86.0178,23.15471],[86.01999,23.15279],[86.01831,23.14814],[86.02455,23.14428],[86.02907,23.14607],[86.03464,23.14444],[86.03754,23.14711],[86.04452,23.14424],[86.04606,23.14171],[86.04593,23.13599],[86.04904,23.1334],[86.05591,23.12274],[86.05409,23.11714],[86.05411,23.11269],[86.05219,23.11144],[86.05081,23.10709],[86.05126,23.10553],[86.05451,23.10346],[86.06046,23.10246],[86.07693,23.09431],[86.09005,23.09471],[86.09062,23.08943],[86.09926,23.08398],[86.10224,23.08653],[86.11023,23.08429],[86.11519,23.08566],[86.12071,23.08483],[86.12562,23.0871],[86.13037,23.0842],[86.13795,23.08299],[86.13801,23.08102],[86.13992,23.08014],[86.14295,23.084],[86.1423,23.08622],[86.14356,23.08852],[86.14951,23.09078],[86.15721,23.08927],[86.15841,23.09496],[86.15258,23.09694],[86.155,23.10466],[86.153,23.10853],[86.14565,23.10988],[86.14228,23.10654],[86.14109,23.10729],[86.1386,23.10582],[86.13391,23.10717],[86.13551,23.10766],[86.14308,23.11695],[86.15087,23.12007],[86.15166,23.1277],[86.1546,23.1287],[86.15304,23.1305],[86.15475,23.13194],[86.15232,23.1349],[86.15249,23.13864],[86.14954,23.13887],[86.14861,23.144],[86.14557,23.14651],[86.14673,23.15134],[86.14871,23.15346],[86.14589,23.15412],[86.14496,23.15578],[86.14791,23.16304],[86.15041,23.16294],[86.15105,23.16417],[86.15173,23.17949],[86.15894,23.18177],[86.16829,23.18129],[86.17199,23.17958],[86.18156,23.17974],[86.18631,23.18338],[86.19225,23.18541],[86.19135,23.18685],[86.19294,23.18755],[86.19411,23.19324],[86.19677,23.19342],[86.19433,23.19634],[86.19455,23.20655],[86.19605,23.20941],[86.19216,23.22106],[86.18636,23.21927],[86.18285,23.22196],[86.17871,23.22834],[86.17425,23.23138],[86.17165,23.23147],[86.17101,23.2427],[86.16042,23.2447],[86.15136,23.24846],[86.14278,23.24834],[86.13998,23.2497],[86.13919,23.25493],[86.14128,23.25958],[86.14074,23.26147],[86.13585,23.25938],[86.13387,23.26089],[86.13171,23.25992],[86.12177,23.26001],[86.1228,23.26577],[86.12453,23.26784],[86.12287,23.26792],[86.11665,23.26642],[86.11181,23.26263],[86.10556,23.26006],[86.10183,23.2655],[86.10589,23.26847],[86.10242,23.27537],[86.10253,23.2784],[86.0945,23.2781],[86.09537,23.27072],[86.09744,23.2688],[86.09109,23.26928],[86.08716,23.26586],[86.08139,23.26934],[86.07851,23.26722],[86.07693,23.26917],[86.07723,23.27118],[86.06495,23.27063],[86.06291,23.27512],[86.06038,23.27701],[86.0605,23.2793],[86.05751,23.28439],[86.05594,23.2847],[86.05675,23.27923],[86.05594,23.27823],[86.04704,23.27824],[86.04195,23.27644],[86.03366,23.27956],[86.02641,23.28837],[86.0261,23.29253],[86.02382985461877,23.29430740064732],[86.02491,23.29439],[86.0241,23.2954],[86.02558,23.29961],[86.02411,23.30403],[86.02746,23.30706],[86.03595,23.31079],[86.03586,23.31714],[86.03468,23.31759],[86.0346,23.31938],[86.03635,23.32209],[86.03445,23.3293],[86.03032,23.33358],[86.02845,23.33881],[86.0226,23.34117],[86.01765,23.34532],[86.01739,23.34702],[86.01352,23.34876],[86.01411,23.35027],[86.0114,23.35755],[86.00628,23.36008],[86.00735,23.36381],[86.00572,23.36561],[86.00772,23.36654],[86.01133,23.37309],[86.00448,23.37559],[86.00403,23.37055],[86.00265,23.37084],[85.99989,23.37432],[86.00048,23.37599],[85.99752,23.37663],[85.99752,23.37534],[85.99465,23.37565],[85.99105,23.37756],[85.9907,23.38295],[85.98013,23.38292],[85.98131,23.3862],[85.97951,23.38914],[85.96822,23.38999],[85.96882,23.39711],[85.95852,23.39694],[85.95672,23.3985],[85.96122,23.40333],[85.96037,23.40717],[85.94812,23.41063],[85.93906,23.40929],[85.93823,23.41054],[85.93848,23.4162],[85.94109,23.4161],[85.94227,23.42003],[85.94654,23.42058],[85.94632,23.42877],[85.94453,23.43381],[85.94645,23.43835],[85.9448,23.4398],[85.93844,23.44095],[85.93676,23.44267],[85.94385,23.44442],[85.94122,23.44818],[85.93854,23.44878],[85.93679,23.45177],[85.93785,23.45729],[85.94337,23.45951],[85.94353,23.46208],[85.94471,23.46248],[85.95079,23.46006],[85.95302,23.46097],[85.95905,23.45731],[85.96165,23.45964],[85.95721,23.46398],[85.96009,23.46868],[85.9592,23.47005],[85.95578,23.47152],[85.93283,23.47291],[85.92017,23.47724],[85.91524,23.48187],[85.91204,23.48084],[85.9086,23.48363],[85.90053,23.48241],[85.89627,23.48377],[85.8863,23.48205],[85.88715,23.48431],[85.88273,23.48095],[85.87546,23.47985],[85.87364,23.47673],[85.87,23.47495],[85.868,23.46545],[85.86249,23.46152],[85.86573,23.45991],[85.86363,23.45861],[85.8649,23.4547],[85.86188,23.43906],[85.86418,23.43569],[85.86389,23.43136],[85.87665,23.42967],[85.88137,23.43103],[85.88585,23.42762],[85.88646,23.42481],[85.88029,23.42239],[85.89105,23.41165],[85.89135,23.40962],[85.8875,23.40813],[85.88673,23.4046],[85.89866,23.40502],[85.90152,23.40227],[85.90279,23.39833],[85.90142,23.39554],[85.89855,23.39355],[85.8883,23.39674],[85.88012,23.39255],[85.87345,23.39104],[85.87081,23.38881],[85.87082,23.38607],[85.87843,23.38168],[85.87476,23.37678],[85.87599,23.36667],[85.87517,23.35983],[85.87636,23.35742],[85.88231,23.35289],[85.88307,23.35078],[85.87258,23.34243],[85.86625,23.34152],[85.86548,23.33912],[85.8682,23.32978],[85.86301,23.32775],[85.85945,23.32206],[85.85069,23.31664],[85.84747,23.30969],[85.83838,23.3065],[85.82863,23.28228],[85.81972,23.26888]],[[86.02313,23.29162],[86.02321,23.29426],[86.02348419021155,23.294280967486767],[86.02313,23.29162]]]}},{"type":"Feature","properties":{"ac":"Balarampur","blocks":["Arsha","Balarampur"],"labelAt":[86.21127463665857,23.197071143854757]},"geometry":{"type":"Polygon","coordinates":[[[86.05503,23.28907],[86.05582,23.28474],[86.05884,23.28267],[86.06038,23.27701],[86.06291,23.27512],[86.06495,23.27063],[86.07723,23.27118],[86.07693,23.26917],[86.07851,23.26722],[86.08139,23.26934],[86.08808,23.26585],[86.09109,23.26928],[86.09744,23.2688],[86.09537,23.27072],[86.0945,23.2781],[86.10253,23.2784],[86.10242,23.27537],[86.10589,23.26847],[86.10183,23.2655],[86.10556,23.26006],[86.11181,23.26263],[86.11665,23.26642],[86.12287,23.26792],[86.12453,23.26784],[86.1228,23.26577],[86.12177,23.26001],[86.13171,23.25992],[86.13387,23.26089],[86.13585,23.25938],[86.14074,23.26147],[86.14128,23.25958],[86.13919,23.25493],[86.13998,23.2497],[86.14278,23.24834],[86.15136,23.24846],[86.16042,23.2447],[86.17101,23.2427],[86.17165,23.23147],[86.17425,23.23138],[86.17871,23.22834],[86.18285,23.22196],[86.18636,23.21927],[86.19241490752836,23.22029658799347],[86.19605,23.20941],[86.19455,23.20655],[86.19433,23.19634],[86.19677,23.19342],[86.19411,23.19324],[86.19294,23.18755],[86.19135,23.18685],[86.19225,23.18541],[86.18631,23.18338],[86.18156,23.17974],[86.17199,23.17958],[86.16829,23.18129],[86.15894,23.18177],[86.15107,23.17854],[86.15105,23.16417],[86.15041,23.16294],[86.14791,23.16304],[86.14532,23.15706],[86.14517,23.15476],[86.14871,23.15346],[86.14673,23.15134],[86.14557,23.14651],[86.14861,23.144],[86.14954,23.13887],[86.15249,23.13864],[86.15232,23.1349],[86.15475,23.13194],[86.15304,23.1305],[86.1546,23.1287],[86.15166,23.1277],[86.15087,23.12007],[86.14308,23.11695],[86.13551,23.10766],[86.13391,23.10717],[86.1386,23.10582],[86.14109,23.10729],[86.14228,23.10654],[86.14565,23.10988],[86.153,23.10853],[86.155,23.10466],[86.15258,23.09694],[86.15808,23.09552],[86.15855,23.09188],[86.15721,23.08927],[86.14951,23.09078],[86.14356,23.08852],[86.1423,23.08622],[86.14295,23.084],[86.14025,23.08019],[86.13801,23.08102],[86.13795,23.08299],[86.13552,23.08412],[86.13384,23.08341],[86.1358,23.08065],[86.13549,23.0776],[86.14626,23.07496],[86.14366,23.06774],[86.14404,23.06351],[86.14177,23.06012],[86.14133,23.05658],[86.14286,23.05519],[86.14261,23.05364],[86.15099,23.05154],[86.15364,23.0481],[86.15828,23.04584],[86.15567,23.03329],[86.15717,23.02994],[86.16305,23.02829],[86.16544,23.03238],[86.16774,23.03256],[86.16639,23.02947],[86.16846,23.02806],[86.16847,23.0267],[86.17049,23.0264],[86.17008,23.02244],[86.17615,23.02028],[86.17932,23.02038],[86.18094,23.02359],[86.18338,23.02406],[86.20017,23.02456],[86.20782,23.02313],[86.20977,23.02233],[86.21039,23.01978],[86.21844,23.01768],[86.22299,23.0133],[86.22928,23.02019],[86.23278,23.0177],[86.23478,23.0187],[86.23643,23.01727],[86.24,23.01704],[86.24421,23.01283],[86.249,23.01277],[86.25268,23.00818],[86.2542,23.00981],[86.26123,23.01169],[86.26226,23.0138],[86.26708,23.01264],[86.27279,23.01461],[86.27613,23.01912],[86.2783,23.02715],[86.28051,23.03006],[86.28368,23.03098],[86.27522,23.03674],[86.27591,23.03743],[86.27393,23.04315],[86.28364,23.0439],[86.2847,23.04649],[86.29107,23.04691],[86.28276,23.05574],[86.29372,23.0655],[86.29531,23.07334],[86.2902,23.07565],[86.29112,23.07698],[86.28653,23.08359],[86.29087,23.08623],[86.29117,23.08925],[86.30144,23.09525],[86.30383,23.09439],[86.31015,23.09698],[86.31708,23.09197],[86.31692,23.09413],[86.31933,23.09722],[86.31635,23.10351],[86.31632,23.10769],[86.31185,23.11117],[86.31243,23.11504],[86.30994,23.12005],[86.30653,23.12377],[86.30088,23.13421],[86.29486,23.1389],[86.28772,23.15595],[86.28465,23.1603],[86.28476,23.16661],[86.28734,23.16899],[86.28382,23.1716],[86.28564,23.1752],[86.28487,23.1769],[86.28033,23.17986],[86.28481,23.17694],[86.28693,23.17843],[86.28766,23.18303],[86.29203,23.1861],[86.2981,23.18747],[86.30347,23.19992],[86.30691,23.20453],[86.31035,23.20548],[86.31262,23.20983],[86.315,23.21006],[86.32553,23.20275],[86.33334,23.19913],[86.32873,23.19284],[86.32291,23.17931],[86.3356,23.17849],[86.3398,23.19399],[86.33841,23.1961],[86.33937,23.198],[86.33595,23.20088],[86.34224,23.21258],[86.34172,23.21617],[86.34608,23.21796],[86.34612,23.21945],[86.34985,23.22027],[86.35062,23.22463],[86.34558,23.23234],[86.3465,23.24014],[86.34521,23.24154],[86.34383,23.24004],[86.34088,23.23999],[86.33715,23.23648],[86.33371,23.23612],[86.33001,23.23146],[86.32231,23.23217],[86.32661,23.23511],[86.32828,23.24001],[86.32801,23.24466],[86.33004,23.24651],[86.32918,23.25074],[86.31947,23.2536],[86.32177,23.25764],[86.32084,23.25868],[86.31852,23.25788],[86.31445,23.26032],[86.31227,23.25954],[86.30874,23.26126],[86.30593,23.26956],[86.30635,23.27153],[86.31186,23.27283],[86.31503,23.27554],[86.31627,23.28169],[86.32841,23.28807],[86.32533,23.29136],[86.32352,23.29742],[86.31415,23.29813],[86.31376,23.30073],[86.32308,23.30819],[86.3211,23.30972],[86.31853,23.31633],[86.31164,23.31572],[86.30956,23.32124],[86.30711,23.3224],[86.30101,23.32071],[86.2926,23.32165],[86.29098,23.32637],[86.28582,23.32708],[86.28152,23.33321],[86.27932,23.33387],[86.27433,23.33185],[86.27074,23.33215],[86.2641,23.33772],[86.2623,23.34135],[86.25762,23.34263],[86.25512,23.34514],[86.24801,23.34131],[86.24465,23.34569],[86.23729,23.3491],[86.23435,23.35199],[86.23224,23.35235],[86.22823,23.35059],[86.21372,23.35641],[86.21394,23.35976],[86.21232,23.36117],[86.20918,23.35903],[86.20634,23.3626],[86.20449,23.35922],[86.20178,23.35828],[86.19519,23.36278],[86.18512,23.36546],[86.1797,23.36302],[86.17397,23.36456],[86.17235,23.36275],[86.16615,23.36255],[86.16433,23.3662],[86.15011,23.36846],[86.14474,23.37584],[86.14308,23.37565],[86.14174,23.37304],[86.13748,23.37242],[86.13388,23.37619],[86.13376,23.37992],[86.13215,23.38156],[86.12287,23.3835],[86.12084,23.3829],[86.1201,23.38109],[86.11031,23.3809],[86.10422,23.38343],[86.09801,23.38308],[86.09541,23.38423],[86.08993,23.37321],[86.08718,23.37359],[86.08399,23.36877],[86.08458,23.36308],[86.07978,23.35751],[86.0787,23.35191],[86.06737,23.3308],[86.06783,23.32125],[86.06405,23.31808],[86.06637,23.29694],[86.0644,23.29533],[86.06352,23.2909],[86.05503,23.28907]],[[86.19481908243081,23.220704207280384],[86.19562,23.22084],[86.19580298653611,23.220572558139533],[86.19481908243081,23.220704207280384]],[[86.21368,23.22207],[86.21712,23.22214],[86.21814,23.22156],[86.21368,23.22207]]]}},{"type":"Feature","properties":{"ac":"Bandwan","blocks":["Bandwan","Barabazar","Manbazar II"],"labelAt":[86.45409801643267,22.978494918347188]},"geometry":{"type":"Polygon","coordinates":[[[86.17923,23.01733],[86.18127,23.0147],[86.1809,23.01126],[86.18327,23.00638],[86.18654,23.00495],[86.19369,23.00515],[86.19807,23.00685],[86.2084,23.00651],[86.20616,23.00044],[86.22046,22.99883],[86.22269,22.9995],[86.22486,22.99694],[86.22877,22.99512],[86.23104,22.99614],[86.24171,22.99609],[86.24306,22.9981],[86.24535,22.9982],[86.2485,22.99491],[86.25012,22.99641],[86.2517,22.9959],[86.26056,22.99859],[86.26585,22.99798],[86.26824,22.99984],[86.26787,23.00116],[86.27717,23.00738],[86.28101,23.00795],[86.28418,23.00692],[86.29212,23.01298],[86.29621,23.00968],[86.29938,23.00979],[86.30374,23.016],[86.30469,23.0153],[86.30224,23.01006],[86.30909,23.00705],[86.3089,23.00342],[86.31612,23.00007],[86.31979,23.0006],[86.32159,22.99744],[86.32593,22.9949],[86.33953,22.98981],[86.34061,22.99355],[86.3437,22.99649],[86.34764,22.99662],[86.35453,22.99297],[86.35443,22.99934],[86.3639,22.99958],[86.37178,22.99674],[86.37275,22.99815],[86.38356,22.99428],[86.38502,22.99526],[86.38541,22.98945],[86.38771,22.98531],[86.3948,22.98022],[86.39855,22.97989],[86.40108,22.98086],[86.40689,22.98972],[86.4084,22.98906],[86.41006,22.99113],[86.41329,22.99081],[86.41716,22.9932],[86.41733,22.99705],[86.41972,22.99678],[86.41825,22.99921],[86.41926,23.00027],[86.42529,22.99757],[86.42531,22.99657],[86.4423,22.99323],[86.44642,22.98824],[86.45085,22.98835],[86.45155,22.99024],[86.46451,22.98844],[86.47051,22.98889],[86.47217,22.99091],[86.47573,22.99175],[86.48037,22.98982],[86.48108,22.99098],[86.48706,22.99243],[86.49769,22.99204],[86.50115,22.99359],[86.50416,22.98611],[86.51378,22.97749],[86.50862,22.97304],[86.52119,22.97071],[86.52619,22.97261],[86.52684,22.97549],[86.52382,22.97713],[86.52814,22.98064],[86.53478,22.98191],[86.54288,22.98719],[86.54527613831063,22.990133827067336],[86.54767,22.98763],[86.5475,22.98232],[86.55056,22.97799],[86.54745,22.97263],[86.54408,22.96973],[86.54478,22.96569],[86.54037,22.9668],[86.5316,22.96521],[86.52983,22.95154],[86.5257972892671,22.947609265860343],[86.52579,22.94765],[86.52165,22.95004],[86.51921,22.94824],[86.5127,22.94776],[86.50736,22.95081],[86.50258,22.95187],[86.5029,22.94897],[86.50089,22.94757],[86.50067,22.94585],[86.49757,22.94597],[86.49747,22.94745],[86.49524,22.94685],[86.49454,22.94326],[86.48913,22.93724],[86.4853,22.94277],[86.47727,22.94609],[86.47793,22.94936],[86.47632,22.95118],[86.47636,22.95023],[86.47098,22.94893],[86.46912,22.94451],[86.46535,22.94546],[86.46215,22.94137],[86.45998,22.93506],[86.45436,22.93198],[86.45131,22.93325],[86.4468,22.93071],[86.44301,22.93067],[86.44201,22.92797],[86.43534,22.92519],[86.4362,22.92232],[86.44048,22.91949],[86.44151,22.91629],[86.44468,22.91394],[86.44659,22.90966],[86.45139,22.90563],[86.45131,22.90384],[86.45256,22.90417],[86.45297,22.90246],[86.45555,22.9033],[86.45752,22.90202],[86.46457,22.90151],[86.46543,22.90239],[86.46714,22.89993],[86.46528,22.89817],[86.46583,22.8966],[86.46463,22.89434],[86.46004,22.89208],[86.45647,22.88806],[86.45625,22.88577],[86.45343,22.88587],[86.45481,22.87858],[86.45198,22.87292],[86.45236,22.86854],[86.45077,22.86154],[86.43969,22.86426],[86.43497,22.86051],[86.43588,22.85912],[86.4334,22.85336],[86.43555,22.83592],[86.43885,22.83102],[86.42848,22.81934],[86.42252,22.80998],[86.42525,22.80654],[86.42339,22.80216],[86.42543,22.7991],[86.42256,22.79687],[86.42341,22.79217],[86.42074,22.79278],[86.41881,22.79068],[86.41654,22.79153],[86.41622,22.78886],[86.41868,22.78752],[86.41761,22.78368],[86.42148,22.78014],[86.42581,22.77975],[86.4301,22.77469],[86.43748,22.77126],[86.44842,22.76193],[86.45793,22.76336],[86.46018,22.76191],[86.46968,22.7521],[86.47364,22.7397],[86.47505,22.73913],[86.47651,22.73498],[86.48173,22.7302],[86.48154,22.72786],[86.48443,22.72661],[86.48539,22.72825],[86.48668,22.72813],[86.49321,22.72639],[86.49468,22.72328],[86.49768,22.72287],[86.50001,22.72046],[86.50687,22.70964],[86.51133,22.705],[86.51345,22.70717],[86.51151,22.71197],[86.51293,22.71662],[86.52033,22.71523],[86.5238,22.71938],[86.53513,22.71725],[86.5442,22.7216],[86.55801,22.71111],[86.56493,22.72113],[86.56813,22.72809],[86.57832,22.74195],[86.58112,22.74824],[86.58671,22.75325],[86.59288,22.76236],[86.59227,22.7637],[86.59396,22.76399],[86.5941,22.76856],[86.60194,22.78105],[86.60182,22.78583],[86.60336,22.78914],[86.60202,22.79258],[86.59807,22.79621],[86.61131,22.79862],[86.61145,22.80356],[86.60898,22.80674],[86.61289,22.81088],[86.61399,22.8157],[86.61807,22.82141],[86.61728,22.82443],[86.62289,22.82522],[86.62524,22.82396],[86.62748,22.82496],[86.63349,22.82436],[86.64008,22.82847],[86.64791,22.83893],[86.65611,22.8365],[86.66222,22.85228],[86.67314,22.85356],[86.67464,22.85507],[86.67721,22.86168],[86.68616,22.86184],[86.70176,22.87176],[86.70484,22.87546],[86.70452,22.87744],[86.70668,22.88065],[86.70685,22.88685],[86.70134,22.89041],[86.70302,22.89344],[86.7066,22.89338],[86.70681,22.89451],[86.70508,22.89691],[86.70524,22.90082],[86.69997,22.90848],[86.7019,22.91078],[86.69976,22.91521],[86.69743,22.91673],[86.69664,22.91978],[86.69803,22.92348],[86.69591,22.92576],[86.69332,22.92581],[86.69069,22.9311],[86.69321,22.93375],[86.6929,22.9358],[86.6953,22.93615],[86.69817,22.94104],[86.70248,22.95282],[86.70413,22.95211],[86.70979,22.95778],[86.70274,22.96263],[86.70157,22.96216],[86.70066,22.9702],[86.69089,22.97402],[86.68543,22.9736],[86.67632,22.97068],[86.67606,22.97784],[86.67894,22.9815],[86.67401,22.99439],[86.67358,22.99893],[86.67579,23.00371],[86.67482,23.00487],[86.67084,23.00591],[86.66772,23.00461],[86.65623,23.00363],[86.64288,22.99764],[86.63942,22.99779],[86.63719,23.00208],[86.63576,23.01225],[86.62731,23.01301],[86.62448,23.00861],[86.62178,23.0075],[86.61483,23.01434],[86.60766,23.02817],[86.59624,23.03337],[86.59846,23.03593],[86.60353,23.03768],[86.60776,23.04552],[86.60735,23.04691],[86.60524,23.04769],[86.60167,23.04468],[86.59516,23.04414],[86.58776,23.04021],[86.58602,23.04091],[86.58554,23.04607],[86.58161,23.0487],[86.5725,23.04624],[86.56253,23.04682],[86.55821,23.05106],[86.55154,23.04918],[86.54956,23.04971],[86.54561,23.05455],[86.54374,23.0548],[86.5409,23.04619],[86.5315,23.04822],[86.52985,23.04383],[86.52701,23.04212],[86.52034,23.04409],[86.52005,23.04543],[86.52161,23.04727],[86.52301,23.05516],[86.52165,23.05931],[86.51776,23.05963],[86.51563,23.05615],[86.51387,23.05628],[86.50895,23.06299],[86.50768,23.06313],[86.50436,23.06186],[86.49952,23.05746],[86.49436,23.05658],[86.48435,23.06293],[86.48294,23.06547],[86.48358,23.07056],[86.487,23.07574],[86.49592,23.07343],[86.49465,23.07914],[86.49611,23.08113],[86.49543,23.08312],[86.4933,23.08542],[86.48958,23.08582],[86.48807,23.08773],[86.48075,23.08899],[86.48255,23.09116],[86.4795,23.09591],[86.48317,23.09851],[86.48344,23.1016],[86.47369,23.11066],[86.4678,23.11195],[86.46784,23.12114],[86.46577,23.124],[86.46499,23.12864],[86.45502,23.13207],[86.45156,23.13043],[86.44967,23.13413],[86.44651,23.13571],[86.44191,23.14102],[86.4324,23.14516],[86.43674,23.14981],[86.43891,23.16215],[86.43553,23.16478],[86.43152,23.16383],[86.4286,23.16662],[86.42505,23.1645],[86.42198,23.1653],[86.41487,23.16384],[86.41185,23.16461],[86.40907,23.16737],[86.40234,23.16606],[86.39982,23.17097],[86.4008,23.17557],[86.39279,23.17803],[86.39188,23.18108],[86.38875,23.18299],[86.38089,23.19215],[86.37864,23.18794],[86.37335,23.18504],[86.36694,23.18335],[86.35911,23.18425],[86.35431,23.17998],[86.35403,23.17666],[86.35023,23.17375],[86.34458,23.17106],[86.34002,23.17045],[86.33874,23.17475],[86.33468,23.17912],[86.32291,23.17931],[86.32873,23.19284],[86.33334,23.19913],[86.315,23.21006],[86.31262,23.20983],[86.31035,23.20548],[86.30764,23.20536],[86.30347,23.19992],[86.2981,23.18747],[86.29203,23.1861],[86.28766,23.18303],[86.28693,23.17843],[86.28481,23.17694],[86.28564,23.1752],[86.28382,23.1716],[86.28734,23.16899],[86.28476,23.16661],[86.28465,23.1603],[86.28772,23.15595],[86.29486,23.1389],[86.30088,23.13421],[86.30653,23.12377],[86.30994,23.12005],[86.31243,23.11504],[86.31185,23.11117],[86.31632,23.10769],[86.31635,23.10351],[86.31933,23.09722],[86.31692,23.09413],[86.31708,23.09197],[86.31015,23.09698],[86.30383,23.09439],[86.30144,23.09525],[86.29117,23.08925],[86.29087,23.08623],[86.28653,23.08359],[86.29112,23.07698],[86.2902,23.07565],[86.29531,23.07334],[86.29543,23.07013],[86.29372,23.0655],[86.28276,23.05574],[86.29107,23.04691],[86.2847,23.04649],[86.28364,23.0439],[86.27393,23.04315],[86.27591,23.03743],[86.27522,23.03674],[86.28368,23.03098],[86.28051,23.03006],[86.2783,23.02715],[86.27613,23.01912],[86.27279,23.01461],[86.26708,23.01264],[86.26226,23.0138],[86.26123,23.01169],[86.25205,23.0082],[86.249,23.01277],[86.24421,23.01283],[86.24,23.01704],[86.23643,23.01727],[86.23478,23.0187],[86.23278,23.0177],[86.22928,23.02019],[86.22299,23.0133],[86.21844,23.01768],[86.21039,23.01978],[86.20977,23.02233],[86.20782,23.02313],[86.20017,23.02456],[86.18338,23.02406],[86.1802,23.02267],[86.17923,23.01733]],[[86.52005,23.04543],[86.51721015296367,23.047013760847182],[86.51748,23.04711],[86.52005,23.04543]],[[86.50854,23.03313],[86.51028,23.03883],[86.51087314205667,23.03930213675549],[86.50854,23.03313]],[[86.51577,23.0432],[86.51605,23.0466],[86.51684644715367,23.046884047586275],[86.51577,23.0432]],[[86.52594710040572,22.946772085968053],[86.52909,22.94322],[86.52613,22.94575],[86.52594710040572,22.946772085968053]]]}},{"type":"Feature","properties":{"ac":"Joypur","blocks":["Jhalda II","Joypur"],"labelAt":[86.08467279572348,23.44651128380847]},"geometry":{"type":"Polygon","coordinates":[[[85.93668,23.45218],[85.93854,23.44878],[85.94122,23.44818],[85.94387,23.44487],[85.93676,23.44267],[85.93844,23.44095],[85.9448,23.4398],[85.94645,23.43835],[85.94453,23.43381],[85.94632,23.42877],[85.94654,23.42058],[85.94227,23.42003],[85.94109,23.4161],[85.93848,23.4162],[85.938,23.41159],[85.93906,23.40929],[85.94812,23.41063],[85.96037,23.40717],[85.96122,23.40333],[85.95672,23.3985],[85.95852,23.39694],[85.96882,23.39711],[85.96822,23.38999],[85.97951,23.38914],[85.98131,23.3862],[85.98013,23.38292],[85.9907,23.38295],[85.99105,23.37756],[85.99465,23.37565],[85.99752,23.37534],[85.99752,23.37663],[86.00048,23.37599],[85.99989,23.37432],[86.00265,23.37084],[86.00403,23.37055],[86.00448,23.37559],[86.01133,23.37309],[86.00772,23.36654],[86.00572,23.36561],[86.00735,23.36381],[86.00628,23.36008],[86.0114,23.35755],[86.01467,23.34752],[86.0164,23.34785],[86.0188,23.34408],[86.0226,23.34117],[86.02845,23.33881],[86.03032,23.33358],[86.03445,23.3293],[86.03635,23.32209],[86.0346,23.31938],[86.03468,23.31759],[86.03586,23.31714],[86.03595,23.31079],[86.02746,23.30706],[86.02411,23.30403],[86.02558,23.29961],[86.0241,23.2954],[86.0261,23.29253],[86.02594,23.28912],[86.03427,23.27904],[86.04195,23.27644],[86.04704,23.27824],[86.05654,23.2785],[86.05503,23.28907],[86.064,23.29144],[86.06384,23.29411],[86.06665,23.29779],[86.06405,23.31808],[86.06783,23.32125],[86.06737,23.3308],[86.0787,23.35191],[86.07978,23.35751],[86.08458,23.36308],[86.08399,23.36877],[86.08718,23.37359],[86.08993,23.37321],[86.09541,23.38423],[86.09801,23.38308],[86.10422,23.38343],[86.11031,23.3809],[86.1201,23.38109],[86.12225,23.38335],[86.13328,23.38078],[86.13388,23.37619],[86.13748,23.37242],[86.14174,23.37304],[86.14308,23.37565],[86.14474,23.37584],[86.15011,23.36846],[86.16433,23.3662],[86.16615,23.36255],[86.17235,23.36275],[86.17397,23.36456],[86.1797,23.36302],[86.18512,23.36546],[86.19519,23.36278],[86.20085,23.35847],[86.20449,23.35922],[86.20674,23.36267],[86.20918,23.35903],[86.2113,23.35978],[86.21431,23.36865],[86.22058,23.37336],[86.21955,23.3804],[86.21723,23.38228],[86.21704,23.38462],[86.21366,23.38724],[86.21757,23.39415],[86.21611,23.39565],[86.21951,23.39933],[86.21923,23.40428],[86.22428,23.41476],[86.23127,23.41279],[86.23377,23.41651],[86.23453,23.42096],[86.22987,23.43082],[86.23245,23.43253],[86.23146,23.43598],[86.23346,23.43775],[86.23276,23.43932],[86.23655,23.44488],[86.24237,23.44653],[86.24216,23.45112],[86.24709,23.45565],[86.24734,23.45838],[86.23741,23.46111],[86.23496,23.46055],[86.23262,23.46224],[86.23184,23.45382],[86.23031,23.45132],[86.23075,23.44485],[86.22838,23.44288],[86.21573,23.44815],[86.20678,23.45],[86.20571,23.45368],[86.19889,23.45334],[86.19709,23.45553],[86.19589,23.45439],[86.19503,23.45789],[86.19144,23.46018],[86.18706,23.45809],[86.18172,23.46008],[86.18203,23.46697],[86.17935,23.46761],[86.17829,23.46984],[86.16034,23.46591],[86.15957,23.46884],[86.14883,23.46526],[86.14741,23.46841],[86.14918,23.47246],[86.149,23.4752],[86.15156,23.47433],[86.15371,23.47574],[86.15361,23.47893],[86.15135,23.4822],[86.15756,23.48864],[86.15961,23.49344],[86.15741,23.50064],[86.16057,23.50367],[86.16239,23.50849],[86.1541,23.51273],[86.14863,23.51935],[86.15031,23.52523],[86.15537,23.52962],[86.15749,23.53701],[86.15805,23.54147],[86.15231,23.54912],[86.15282,23.55213],[86.15835,23.55998],[86.15569,23.56104],[86.1547,23.56012],[86.15309,23.56124],[86.14832,23.56081],[86.14678,23.56169],[86.14724,23.56386],[86.14328,23.56405],[86.14162,23.5634],[86.14174,23.56144],[86.13927,23.55927],[86.13662,23.56285],[86.13125,23.55929],[86.13154,23.56276],[86.12693,23.56592],[86.12918,23.56651],[86.12922,23.56774],[86.12667,23.5694],[86.12394,23.56927],[86.12063,23.56618],[86.11786,23.56735],[86.11584,23.5661],[86.10849,23.5697],[86.10598,23.56596],[86.10094,23.56542],[86.09907,23.56651],[86.09393,23.56324],[86.08512,23.56683],[86.08087,23.56568],[86.07274,23.56884],[86.07743,23.57921],[86.07141,23.57815],[86.0657,23.57896],[86.0556,23.58294],[86.05216,23.58615],[86.04766,23.58563],[86.04206,23.58688],[86.04013,23.57526],[86.0375,23.57651],[86.03075,23.572],[86.02467,23.56205],[86.01782,23.55959],[86.01727,23.55742],[86.01767,23.55221],[86.01628,23.54732],[86.0188,23.5451],[86.02765,23.54211],[86.02818,23.54052],[86.02378,23.53815],[86.02366,23.53692],[86.02841,23.53259],[86.02895,23.52765],[86.03107,23.52671],[86.03387,23.52267],[86.03358,23.51784],[86.03468,23.51593],[86.03924,23.51504],[86.03775,23.51066],[86.03941,23.50466],[86.03819,23.49778],[86.05984247955628,23.49447635781839],[86.05758,23.49454],[86.0563,23.49277],[86.05793,23.49046],[86.05472,23.49017],[86.05384,23.48706],[86.04514,23.4845],[86.0397,23.48442],[86.03726,23.48592],[86.03146,23.48365],[86.02298,23.48651],[86.01673,23.48449],[86.00866,23.48431],[86.00719,23.48272],[86.00537,23.4835],[86.00322,23.48177],[85.99252,23.48033],[85.98897,23.47831],[85.98062,23.47815],[85.97751,23.47604],[85.96277,23.47624],[85.95802,23.47481],[85.95578,23.47152],[85.96009,23.46868],[85.95721,23.46398],[85.96165,23.45964],[85.95905,23.45731],[85.95302,23.46097],[85.95079,23.46006],[85.94372,23.46232],[85.94337,23.45951],[85.93785,23.45729],[85.93668,23.45218]],[[86.08756508180994,23.492755439862453],[86.08898,23.49287],[86.09879101750644,23.490504924285798],[86.09856,23.4904],[86.08756508180994,23.492755439862453]],[[86.10036927606917,23.491221742915876],[86.10051,23.49151],[86.1009544377628,23.491487513565573],[86.10036927606917,23.491221742915876]],[[86.10160904418395,23.491454393597834],[86.10723,23.49117],[86.10980826742858,23.490152262857144],[86.10160904418395,23.491454393597834]],[[86.1111167771639,23.489635745856354],[86.11141,23.48952],[86.11160701771337,23.489030154589372],[86.1111167771639,23.489635745856354]],[[86.11243467092623,23.484669252037882],[86.11260115831602,23.48655842144714],[86.11287,23.48589],[86.11243467092623,23.484669252037882]]]}},{"type":"Feature","properties":{"ac":"Kashipur","blocks":["Kashipur"],"labelAt":[86.721810041841,23.43029694560669]},"geometry":{"type":"Polygon","coordinates":[[[86.699,23.52321],[86.69922,23.52147],[86.70123,23.52283],[86.7022,23.51981],[86.7061,23.51895],[86.70946,23.51581],[86.71213,23.50989],[86.71503,23.50785],[86.71313,23.50774],[86.71165,23.50533],[86.71231,23.50059],[86.71019,23.4987],[86.71764,23.49793],[86.72255,23.49515],[86.72532,23.4921],[86.72664,23.48777],[86.73658,23.48368],[86.73619,23.47457],[86.73706,23.47394],[86.73454,23.47266],[86.73434,23.47123],[86.73953,23.46688],[86.74802,23.47474],[86.74973,23.47327],[86.75768,23.47327],[86.76363,23.47186],[86.76412,23.46569],[86.76797,23.46859],[86.77234,23.46652],[86.77773,23.46697],[86.77258,23.47613],[86.77245,23.47862],[86.76825,23.47974],[86.76525,23.48156],[86.76479,23.48337],[86.76031,23.48487],[86.75693,23.48934],[86.75873,23.4901],[86.75769,23.49322],[86.75387,23.4916],[86.75358,23.4935],[86.75616,23.49443],[86.75865,23.4976],[86.77075,23.49537],[86.77477,23.49668],[86.77203,23.50957],[86.77882,23.51364],[86.7816,23.51337],[86.78493,23.50986],[86.78798,23.50898],[86.78873,23.50597],[86.79215,23.50304],[86.80096,23.508],[86.80669,23.50839],[86.81416,23.50325],[86.82056,23.49277],[86.81693,23.49159],[86.81712,23.48613],[86.80922,23.48421],[86.80744,23.48072],[86.80822,23.47518],[86.82656,23.46607],[86.82702,23.46111],[86.82339,23.45773],[86.82435,23.45473],[86.8232,23.45219],[86.82693,23.44741],[86.82495,23.44078],[86.8257,23.43663],[86.83057,23.43653],[86.83633,23.43453],[86.83712,23.4387],[86.84089,23.43969],[86.84586,23.43589],[86.85536,23.44175],[86.86116,23.44022],[86.86206,23.43818],[86.86606,23.43602],[86.86362,23.43149],[86.86288,23.42651],[86.85989,23.42761],[86.85678,23.42382],[86.85631,23.42132],[86.85435,23.42164],[86.85369,23.42033],[86.84989,23.41944],[86.85066,23.41396],[86.84779,23.40542],[86.85238,23.40052],[86.85428,23.39628],[86.85012,23.39025],[86.85165,23.38518],[86.84581,23.38167],[86.84436,23.38243],[86.84177,23.38144],[86.83677,23.38447],[86.8308,23.3795],[86.83742,23.3745],[86.835,23.36947],[86.83564,23.36375],[86.83201,23.35802],[86.82433,23.36146],[86.81854,23.36012],[86.81646,23.36149],[86.81555,23.35822],[86.81114,23.35325],[86.81194,23.34808],[86.81011,23.3456],[86.81018,23.34072],[86.80536,23.34304],[86.79915,23.34104],[86.79675,23.34418],[86.79546,23.34173],[86.78891,23.34013],[86.78604,23.33026],[86.78731,23.3232],[86.78553,23.31743],[86.78509,23.30933],[86.78653,23.30392],[86.79187,23.29899],[86.77916,23.29611],[86.7779,23.29761],[86.77308,23.29818],[86.76846,23.2964],[86.76631,23.29392],[86.76241,23.29433],[86.746,23.30261],[86.7387,23.3103],[86.7311,23.311],[86.72237,23.31864],[86.71971,23.31793],[86.71475,23.31287],[86.70923,23.31248],[86.70404,23.30951],[86.70068,23.3053],[86.70173,23.30161],[86.70041,23.30058],[86.69451,23.30386],[86.68929,23.30875],[86.68656,23.29896],[86.67755,23.29971],[86.67716,23.31345],[86.67942,23.31745],[86.67809,23.31941],[86.68369,23.32864],[86.6769,23.33084],[86.6755,23.3331],[86.66997,23.3366],[86.65957,23.3285],[86.65531,23.33023],[86.65209,23.33445],[86.63901,23.33522],[86.63894,23.3421],[86.64138,23.34832],[86.64399,23.35047],[86.64376,23.35512],[86.64574,23.35872],[86.63589,23.36171],[86.63228,23.35994],[86.62999,23.36304],[86.62789,23.36253],[86.62426,23.36507],[86.61835,23.3661],[86.61446,23.37144],[86.6192,23.37958],[86.6143,23.38064],[86.60876,23.39042],[86.61627,23.40546],[86.61319,23.4087],[86.61587,23.4095],[86.61635,23.41092],[86.60929,23.41113],[86.60694,23.40872],[86.60269,23.40981],[86.59502,23.41645],[86.59544,23.41825],[86.59412,23.41968],[86.59495,23.42105],[86.59149,23.42277],[86.58907,23.42805],[86.58765,23.42884],[86.58522,23.42768],[86.58264,23.42884],[86.57838,23.4355],[86.5769,23.4438],[86.57338,23.44801],[86.57349,23.45037],[86.57764,23.45315],[86.58352,23.45399],[86.58512,23.45713],[86.58406,23.46215],[86.58855,23.46788],[86.59091,23.47442],[86.59592,23.47381],[86.59916,23.47638],[86.60607,23.47697],[86.6061,23.47846],[86.60837,23.47915],[86.61017,23.48151],[86.61017,23.48661],[86.61446,23.48896],[86.62269,23.48451],[86.62466,23.48994],[86.62142,23.49296],[86.6219,23.49715],[86.62812,23.50981],[86.63407,23.50568],[86.63434,23.50349],[86.63534,23.50379],[86.6356,23.49903],[86.6373,23.49628],[86.6405,23.49693],[86.64068,23.49459],[86.64261,23.49435],[86.64558,23.49631],[86.64663,23.49745],[86.64535,23.49914],[86.64617,23.50109],[86.65046,23.50338],[86.65424,23.50079],[86.65644,23.49693],[86.67302,23.49671],[86.67391,23.49901],[86.67574,23.49867],[86.67667,23.50012],[86.68117,23.49799],[86.68226,23.50435],[86.68502,23.50527],[86.68353,23.50817],[86.68515,23.50945],[86.68879,23.50819],[86.68767,23.51176],[86.68875,23.5118],[86.68837,23.51495],[86.68955,23.51485],[86.69131,23.51753],[86.69129,23.52349],[86.69569,23.52483],[86.699,23.52321]]]}},{"type":"Feature","properties":{"ac":"Manbazar","blocks":["Hura","Manbazar I","Puncha"],"labelAt":[86.61188923977936,23.209911836378957]},"geometry":{"type":"Polygon","coordinates":[[[86.42454,23.19255],[86.42909,23.18918],[86.43692,23.18017],[86.43809,23.17657],[86.44233,23.17129],[86.45173748620438,23.170049639085637],[86.451,23.16701],[86.43891,23.16215],[86.43674,23.14981],[86.4324,23.14516],[86.44191,23.14102],[86.44651,23.13571],[86.44967,23.13413],[86.45156,23.13043],[86.45502,23.13207],[86.46499,23.12864],[86.46577,23.124],[86.46784,23.12114],[86.4678,23.11195],[86.47369,23.11066],[86.48344,23.1016],[86.48317,23.09851],[86.4795,23.09591],[86.48255,23.09116],[86.48075,23.08899],[86.48807,23.08773],[86.48958,23.08582],[86.4933,23.08542],[86.49543,23.08312],[86.49611,23.08113],[86.49465,23.07914],[86.49592,23.07343],[86.487,23.07574],[86.48358,23.07056],[86.48294,23.06547],[86.48435,23.06293],[86.49436,23.05658],[86.49952,23.05746],[86.50436,23.06186],[86.50768,23.06313],[86.50895,23.06299],[86.51387,23.05628],[86.51563,23.05615],[86.51776,23.05963],[86.52165,23.05931],[86.52295,23.05274],[86.52034,23.04409],[86.52701,23.04212],[86.52985,23.04383],[86.5315,23.04822],[86.5409,23.04619],[86.54291,23.0538],[86.54465,23.05489],[86.54956,23.04971],[86.55154,23.04918],[86.55821,23.05106],[86.56253,23.04682],[86.5725,23.04624],[86.58273,23.04832],[86.58554,23.04607],[86.58693,23.04029],[86.59298,23.04216],[86.59585,23.04435],[86.60167,23.04468],[86.60524,23.04769],[86.60657,23.04734],[86.60776,23.04552],[86.60353,23.03768],[86.59846,23.03593],[86.59624,23.03337],[86.60766,23.02817],[86.6136,23.01622],[86.62013,23.00855],[86.62305,23.00759],[86.62731,23.01301],[86.63509,23.01277],[86.63826,22.99883],[86.641,22.99734],[86.65623,23.00363],[86.66772,23.00461],[86.67084,23.00591],[86.67482,23.00487],[86.67579,23.00371],[86.67358,22.99893],[86.67401,22.99439],[86.67894,22.9815],[86.67606,22.97784],[86.67632,22.97068],[86.68543,22.9736],[86.69089,22.97402],[86.70066,22.9702],[86.70157,22.96216],[86.70274,22.96263],[86.70979,22.95778],[86.71392,22.96639],[86.71053,22.96595],[86.71214,22.97134],[86.71724,22.97528],[86.71889,22.98443],[86.72026,22.98519],[86.7188,22.9874],[86.71966,22.99117],[86.72109,22.99333],[86.72592,22.99532],[86.72836,22.99862],[86.72928,23.01596],[86.73221,23.0178],[86.73254,23.02079],[86.7357,23.02632],[86.72728,23.02972],[86.72562,23.03457],[86.73683,23.0402],[86.73945,23.04361],[86.73818,23.04583],[86.73218,23.04491],[86.73063,23.04842],[86.73493,23.05779],[86.73824,23.05937],[86.74055,23.06317],[86.74221,23.06953],[86.74474,23.07088],[86.74675,23.07398],[86.74763,23.08152],[86.75114,23.08542],[86.75204,23.09022],[86.75061,23.09591],[86.74824,23.09709],[86.74835,23.09846],[86.75118,23.09872],[86.75018,23.09998],[86.74629,23.10308],[86.73875,23.10278],[86.72972,23.10538],[86.7242,23.11565],[86.71732,23.12172],[86.72175,23.12224],[86.72433710436118,23.12679954208335],[86.72461,23.12667],[86.72666,23.12824],[86.72783,23.13121],[86.73135,23.13369],[86.73077,23.14057],[86.73274,23.14836],[86.7377,23.15499],[86.73909,23.16208],[86.74485,23.16767],[86.75234,23.16558],[86.75242,23.16732],[86.75431,23.16887],[86.75149,23.17289],[86.75602,23.17191],[86.75902,23.17666],[86.75974,23.18128],[86.75807,23.18183],[86.75863,23.19039],[86.75725,23.19323],[86.75851,23.1976],[86.76143,23.20041],[86.76308,23.20011],[86.76873,23.20347],[86.77976,23.20038],[86.78324,23.20195],[86.78431,23.20452],[86.78745,23.20454],[86.79006,23.20903],[86.78893,23.2101],[86.79084,23.21121],[86.78734,23.21589],[86.78511,23.22253],[86.7822,23.22385],[86.78245,23.22944],[86.77499,23.23505],[86.77409,23.23766],[86.77153,23.23785],[86.77022,23.24115],[86.77352,23.24457],[86.77613325044405,23.244668242497898],[86.77784,23.24112],[86.77949,23.2421],[86.78192,23.2479],[86.7807,23.25068],[86.78144,23.2551],[86.78456,23.26051],[86.78064,23.26433],[86.78064,23.26811],[86.78186,23.26965],[86.78034,23.27282],[86.78384,23.27568],[86.78726,23.27626],[86.78297,23.28061],[86.78273,23.28313],[86.78001,23.28619],[86.77825,23.29737],[86.77308,23.29818],[86.76846,23.2964],[86.76586,23.2939],[86.76241,23.29433],[86.75856,23.29686],[86.75596,23.29671],[86.75025,23.30017],[86.7498,23.30155],[86.74373,23.30434],[86.7387,23.3103],[86.7311,23.311],[86.72237,23.31864],[86.71971,23.31793],[86.71475,23.31287],[86.70923,23.31248],[86.70404,23.30951],[86.70068,23.3053],[86.70173,23.30161],[86.70041,23.30058],[86.69451,23.30386],[86.68929,23.30875],[86.68656,23.29896],[86.67755,23.29971],[86.67716,23.31345],[86.67942,23.31745],[86.67809,23.31941],[86.68369,23.32864],[86.6769,23.33084],[86.6755,23.3331],[86.66997,23.3366],[86.65957,23.3285],[86.65531,23.33023],[86.65209,23.33445],[86.64003,23.33452],[86.63874,23.337],[86.63894,23.3421],[86.64138,23.34832],[86.64399,23.35047],[86.64376,23.35512],[86.64574,23.35872],[86.63589,23.36171],[86.63228,23.35994],[86.62999,23.36304],[86.62789,23.36253],[86.62426,23.36507],[86.61835,23.3661],[86.61446,23.37144],[86.6192,23.37958],[86.6143,23.38064],[86.60876,23.39042],[86.61627,23.40546],[86.61319,23.4087],[86.61587,23.4095],[86.61635,23.41092],[86.60929,23.41113],[86.60789,23.40908],[86.60446,23.40885],[86.59502,23.41645],[86.59544,23.41825],[86.59412,23.41968],[86.59495,23.42105],[86.59149,23.42277],[86.58836,23.42859],[86.58522,23.42768],[86.58361,23.42907],[86.58131,23.42696],[86.57702,23.4274],[86.5752,23.42642],[86.57191,23.4301],[86.56833,23.43016],[86.56629,23.42889],[86.56513,23.43315],[86.56019,23.43474],[86.54756,23.43309],[86.5437,23.4305],[86.53532,23.43143],[86.52061,23.42718],[86.52033,23.42441],[86.51912,23.42599],[86.51788,23.42565],[86.516,23.42225],[86.51553,23.41727],[86.51876,23.40735],[86.5182,23.4034],[86.51539,23.40349],[86.51328,23.402],[86.50724,23.39099],[86.50419,23.3895],[86.49932,23.38944],[86.49504,23.38559],[86.49455,23.38381],[86.49669,23.38164],[86.49729,23.37804],[86.50272,23.3713],[86.50037,23.37002],[86.49865,23.37269],[86.49557,23.37241],[86.49413,23.37017],[86.49622,23.36819],[86.49303,23.36559],[86.49222,23.36201],[86.48797,23.35884],[86.48985,23.35873],[86.4916,23.35657],[86.494,23.35651],[86.4985,23.351],[86.5022,23.35785],[86.50238,23.3626],[86.51118,23.36168],[86.51389,23.36272],[86.51553,23.3599],[86.51397,23.35335],[86.51634,23.35044],[86.50678,23.3411],[86.50585,23.33848],[86.50937,23.33234],[86.5061,23.32747],[86.50602,23.32531],[86.50746,23.32567],[86.5115,23.32261],[86.50808,23.31747],[86.50739,23.31277],[86.49616,23.31687],[86.49085,23.31606],[86.48956,23.31468],[86.48668,23.31609],[86.48507,23.31493],[86.48661,23.31398],[86.48433,23.30971],[86.4845,23.30351],[86.48069,23.28892],[86.48204,23.2737],[86.48067,23.26722],[86.48183,23.26381],[86.48716,23.26457],[86.48928,23.26329],[86.49221,23.25537],[86.49409,23.25417],[86.50027,23.25803],[86.50235,23.25795],[86.50477,23.25451],[86.50573,23.24988],[86.50392,23.24944],[86.50089,23.24554],[86.49599,23.24416],[86.49523,23.24221],[86.49708,23.23645],[86.48963,23.23386],[86.48063,23.23407],[86.47724,23.23686],[86.47723,23.23526],[86.47533,23.23366],[86.46381,23.22988],[86.46023,23.22391],[86.45893,23.22726],[86.45016,23.22941],[86.44763,23.22625],[86.4446,23.22668],[86.44224,23.22281],[86.43908,23.22313],[86.43797,23.21772],[86.43478,23.21604],[86.43171,23.20714],[86.42722,23.20157],[86.42454,23.19255]],[[86.45940833338875,23.169243665528263],[86.46471,23.17087],[86.46057,23.16912],[86.45940833338875,23.169243665528263]],[[86.50950031663126,23.248002932492593],[86.51901093824745,23.251164840726243],[86.51039,23.24756],[86.50950031663126,23.248002932492593]],[[86.51931,23.16916],[86.53211,23.17146],[86.53244032526372,23.171276242899648],[86.51931,23.16916]],[[86.52072221374361,23.251880409661474],[86.5254,23.25544],[86.52163,23.25226],[86.52072221374361,23.251880409661474]],[[86.5254,23.25544],[86.52738,23.25529],[86.52776925472205,23.254784865171555],[86.5254,23.25544]],[[86.52935344946843,23.252729059818112],[86.53295505567648,23.248055264919827],[86.53231,23.24827],[86.52935344946843,23.252729059818112]],[[86.53310869875342,23.170904432481535],[86.53362,23.17062],[86.5361,23.16174],[86.53310869875342,23.170904432481535]],[[86.53710648191806,23.139015763088832],[86.54039066044639,23.13698508781559],[86.53811,23.13801],[86.53710648191806,23.139015763088832]],[[86.5872150401714,23.1561262988752],[86.5878,23.15588],[86.58733,23.15434],[86.5872150401714,23.1561262988752]],[[86.70541,23.13287],[86.71888,23.12939],[86.72166398457584,23.12806845758355],[86.70541,23.13287]],[[86.76874,23.24275],[86.76897767732451,23.242993204704153],[86.77018,23.24003],[86.76874,23.24275]],[[86.77550220792415,23.24505959701998],[86.77594,23.24507],[86.77611421683427,23.24470781237085],[86.77550220792415,23.24505959701998]]]}},{"type":"Feature","properties":{"ac":"Para","blocks":["Para","Raghunathpur II"],"labelAt":[86.53337431297714,23.536397251908404]},"geometry":{"type":"Polygon","coordinates":[[[86.35736,23.46073],[86.35942,23.45709],[86.35895,23.45169],[86.36719,23.4459],[86.37157,23.44626],[86.37453,23.4496],[86.37724,23.44723],[86.38179,23.44663],[86.38283,23.45092],[86.4008,23.44678],[86.40225,23.44316],[86.40556,23.44168],[86.41141,23.44228],[86.41489,23.44039],[86.42127,23.44064],[86.42872,23.44804],[86.43313,23.44821],[86.43623,23.44977],[86.43863,23.45738],[86.43369,23.46186],[86.43359,23.46622],[86.43706,23.46961],[86.44145,23.47103],[86.44491,23.47409],[86.44778,23.4791],[86.45301,23.47885],[86.45448,23.48029],[86.45678,23.48018],[86.45765,23.47803],[86.45515,23.4775],[86.45739,23.4757],[86.45845,23.46843],[86.46044,23.46729],[86.46008,23.4571],[86.46334,23.45514],[86.46415,23.44782],[86.4689,23.44223],[86.47909,23.44181],[86.48517,23.43963],[86.48938,23.44405],[86.48926,23.44531],[86.49345,23.44535],[86.49766,23.44939],[86.50484,23.44912],[86.50562,23.44619],[86.50802,23.44702],[86.50977,23.44991],[86.51166,23.44899],[86.5129,23.44998],[86.51452,23.44824],[86.51455,23.44496],[86.51797,23.44004],[86.51728,23.43937],[86.5227,23.43498],[86.5222,23.42817],[86.53532,23.43143],[86.5437,23.4305],[86.54756,23.43309],[86.55504,23.43327],[86.55873,23.43518],[86.56513,23.43315],[86.56629,23.42889],[86.56833,23.43016],[86.57191,23.4301],[86.5752,23.42642],[86.57702,23.4274],[86.58131,23.42696],[86.58264,23.42884],[86.57838,23.4355],[86.5769,23.4438],[86.5733,23.44923],[86.57433,23.45142],[86.57884,23.45359],[86.58352,23.45399],[86.585,23.45617],[86.58406,23.46215],[86.58944,23.46991],[86.58309,23.47406],[86.57965,23.47856],[86.57868,23.48285],[86.57992,23.48667],[86.58615,23.49052],[86.58795,23.49625],[86.59106,23.50061],[86.59112,23.50302],[86.58947,23.51206],[86.59083,23.5061],[86.59294,23.50691],[86.59991,23.51196],[86.60213,23.5202],[86.6056,23.51985],[86.60769,23.52182],[86.60313,23.5303],[86.60046,23.53101],[86.59848,23.52858],[86.59561,23.53049],[86.59526,23.53298],[86.59863,23.53233],[86.59903,23.53356],[86.59264,23.53726],[86.59309,23.53942],[86.59141,23.5424],[86.59259,23.54622],[86.59472,23.54484],[86.60162,23.54861],[86.6039,23.54687],[86.60909,23.54695],[86.60815,23.54535],[86.60896,23.54527],[86.61135,23.54839],[86.61501,23.54744],[86.62043,23.55023],[86.61844,23.55365],[86.62008,23.55388],[86.61987,23.55558],[86.6221,23.55787],[86.62281,23.55674],[86.63191,23.55515],[86.63374,23.55568],[86.63583,23.56043],[86.63708,23.55983],[86.64092,23.5615],[86.64358,23.55728],[86.64815,23.5605],[86.64663,23.56535],[86.65152,23.56478],[86.64966,23.56049],[86.65282,23.55742],[86.65274,23.5559],[86.66512,23.55457],[86.66664,23.55543],[86.66614,23.55812],[86.66838,23.55897],[86.66892,23.56176],[86.66564,23.56617],[86.66231,23.56738],[86.66171,23.57657],[86.6672,23.57967],[86.66351,23.58618],[86.66441,23.58866],[86.66743,23.5896],[86.66487,23.59139],[86.66655,23.59517],[86.66644,23.6016],[86.66927,23.60267],[86.67309,23.60084],[86.68034,23.60463],[86.69068,23.60452],[86.69217,23.6089],[86.69467,23.61041],[86.69384,23.61332],[86.69661,23.61265],[86.69711,23.61509],[86.69962,23.61704],[86.69904,23.62466],[86.69219,23.62431],[86.68748,23.62571],[86.68331,23.62357],[86.67389,23.62449],[86.67325,23.62223],[86.66608,23.62245],[86.66482,23.62055],[86.65818,23.61954],[86.6574,23.61447],[86.65874,23.61335],[86.6604,23.60497],[86.6513,23.60547],[86.64892,23.60902],[86.64552,23.61037],[86.64418,23.6152],[86.64477,23.62252],[86.64093,23.62182],[86.63227,23.62533],[86.6277,23.62533],[86.62657,23.62747],[86.62029,23.62784],[86.62354,23.63227],[86.62672,23.63194],[86.62736,23.63355],[86.62549,23.63492],[86.62551,23.64044],[86.6203,23.64487],[86.61354,23.64585],[86.61313,23.6557],[86.61679,23.65719],[86.61763,23.66257],[86.61901,23.66276],[86.61967,23.66457],[86.61715,23.66592],[86.61971,23.66706],[86.61929,23.67465],[86.61157,23.67559],[86.59695,23.67349],[86.59601,23.67048],[86.59897,23.6655],[86.58081,23.65548],[86.57444,23.64805],[86.55662,23.63994],[86.5465,23.63764],[86.5354,23.63124],[86.5252,23.63018],[86.51191,23.63171],[86.49203,23.63828],[86.47955,23.63553],[86.47038,23.6305],[86.46328,23.631],[86.45696,23.62609],[86.45417,23.61954],[86.45226,23.61906],[86.4498,23.62071],[86.44643,23.61872],[86.4458,23.61529],[86.44885,23.6017],[86.44605,23.59772],[86.43618,23.59903],[86.43366,23.5955],[86.42914,23.59249],[86.42046,23.58946],[86.41659,23.57839],[86.41356,23.57571],[86.41045,23.57586],[86.40771,23.57877],[86.40247,23.57711],[86.39946,23.57859],[86.38816,23.57395],[86.39083,23.56674],[86.38845,23.56364],[86.38938,23.5612],[86.38759,23.55954],[86.38401,23.55917],[86.37885,23.55132],[86.37856,23.54875],[86.37539,23.54745],[86.37097,23.54262],[86.37163,23.54057],[86.36726,23.54019],[86.36854,23.53525],[86.36511,23.53269],[86.365,23.5311],[86.36828,23.52815],[86.36458,23.52172],[86.37126,23.51748],[86.37519,23.51034],[86.37277,23.50612],[86.3696,23.50454],[86.36868,23.5025],[86.36357,23.50161],[86.36644,23.49627],[86.36561,23.49103],[86.3628,23.48721],[86.36242,23.48425],[86.36544,23.48028],[86.37061,23.48449],[86.37329,23.48298],[86.3788,23.48479],[86.3773,23.48057],[86.37906,23.4781],[86.37946,23.47364],[86.36409,23.47169],[86.36262,23.46745],[86.36306,23.46489],[86.35736,23.46073]],[[86.45234,23.58207],[86.45522869007328,23.586315118455516],[86.4554,23.58528],[86.45234,23.58207]],[[86.45433,23.59328],[86.45505671945864,23.594375626664746],[86.45442330535744,23.592887606236523],[86.45433,23.59328]],[[86.46457185687834,23.590147123407036],[86.47162,23.59001],[86.46501,23.5899],[86.46457185687834,23.590147123407036]],[[86.4753847113315,23.588740504318448],[86.48264,23.59015],[86.47592,23.58856],[86.4753847113315,23.588740504318448]],[[86.51297,23.57118],[86.51773899209289,23.573227642878592],[86.51507,23.57128],[86.51297,23.57118]],[[86.52169154466122,23.574924734415166],[86.52196,23.57504],[86.52398,23.57471],[86.52169154466122,23.574924734415166]],[[86.56624,23.53026],[86.57147,23.53107],[86.57275523066369,23.530589885096894],[86.56624,23.53026]],[[86.57388148815564,23.530169156723467],[86.57495,23.52977],[86.57514000115995,23.52910160306229],[86.57388148815564,23.530169156723467]]]}},{"type":"Feature","properties":{"ac":"Purulia","blocks":["Purulia I","Purulia II"],"labelAt":[86.38967366833454,23.337800220705688]},"geometry":{"type":"Polygon","coordinates":[[[86.21221,23.36425],[86.21232,23.36117],[86.21394,23.35976],[86.21372,23.35641],[86.22823,23.35059],[86.23224,23.35235],[86.23435,23.35199],[86.23729,23.3491],[86.24465,23.34569],[86.24801,23.34131],[86.25512,23.34514],[86.25762,23.34263],[86.2623,23.34135],[86.2641,23.33772],[86.27074,23.33215],[86.27433,23.33185],[86.27932,23.33387],[86.28152,23.33321],[86.28582,23.32708],[86.29098,23.32637],[86.2926,23.32165],[86.30101,23.32071],[86.30711,23.3224],[86.30956,23.32124],[86.31164,23.31572],[86.31853,23.31633],[86.3211,23.30972],[86.32308,23.30819],[86.31376,23.30073],[86.31415,23.29813],[86.32352,23.29742],[86.32533,23.29136],[86.32841,23.28807],[86.31656,23.28193],[86.31503,23.27554],[86.31186,23.27283],[86.307,23.27214],[86.30593,23.26956],[86.30891,23.26095],[86.31227,23.25954],[86.31445,23.26032],[86.31852,23.25788],[86.32084,23.25868],[86.32177,23.25764],[86.31947,23.2536],[86.3288,23.25141],[86.33031,23.24821],[86.32801,23.24466],[86.32828,23.24001],[86.32661,23.23511],[86.32231,23.23217],[86.33001,23.23146],[86.33371,23.23612],[86.33845,23.23714],[86.34088,23.23999],[86.34383,23.24004],[86.34521,23.24154],[86.3465,23.24014],[86.34558,23.23234],[86.35062,23.22463],[86.35078,23.22158],[86.34172,23.21617],[86.34224,23.21258],[86.33595,23.20088],[86.33937,23.198],[86.33841,23.1961],[86.3398,23.19399],[86.3356,23.17849],[86.33874,23.17475],[86.34002,23.17045],[86.34458,23.17106],[86.35023,23.17375],[86.35403,23.17666],[86.35431,23.17998],[86.35911,23.18425],[86.36694,23.18335],[86.37335,23.18504],[86.37864,23.18794],[86.38089,23.19215],[86.38875,23.18299],[86.39188,23.18108],[86.39279,23.17803],[86.4008,23.17557],[86.39982,23.17097],[86.40234,23.16606],[86.40907,23.16737],[86.41185,23.16461],[86.41487,23.16384],[86.42198,23.1653],[86.42505,23.1645],[86.4286,23.16662],[86.43152,23.16383],[86.43553,23.16478],[86.44033,23.16201],[86.44397,23.16491],[86.451,23.16701],[86.45174,23.17006],[86.44233,23.17129],[86.43809,23.17657],[86.43692,23.18017],[86.42909,23.18918],[86.42454,23.19255],[86.42722,23.20157],[86.43171,23.20714],[86.43478,23.21604],[86.43797,23.21772],[86.43908,23.22313],[86.44224,23.22281],[86.4446,23.22668],[86.44763,23.22625],[86.45016,23.22941],[86.45893,23.22726],[86.46023,23.22391],[86.46381,23.22988],[86.47533,23.23366],[86.47723,23.23526],[86.47724,23.23686],[86.48063,23.23407],[86.48963,23.23386],[86.49708,23.23645],[86.49525,23.24321],[86.50089,23.24554],[86.50392,23.24944],[86.50573,23.24988],[86.50292,23.25728],[86.50027,23.25803],[86.49637,23.25477],[86.49318,23.25452],[86.49108,23.26056],[86.48716,23.26457],[86.48331,23.2636],[86.48180400927191,23.263886403778265],[86.48067,23.26722],[86.48204,23.2737],[86.48069,23.28892],[86.4845,23.30351],[86.48433,23.30971],[86.48661,23.31398],[86.48507,23.31493],[86.48668,23.31609],[86.48956,23.31468],[86.49085,23.31606],[86.49616,23.31687],[86.50739,23.31277],[86.50808,23.31747],[86.5115,23.32261],[86.50746,23.32567],[86.50602,23.32531],[86.5061,23.32747],[86.50937,23.33234],[86.50585,23.33848],[86.50678,23.3411],[86.51634,23.35044],[86.51397,23.35335],[86.51532,23.36107],[86.51389,23.36272],[86.51118,23.36168],[86.50238,23.3626],[86.5022,23.35785],[86.4985,23.351],[86.494,23.35651],[86.4916,23.35657],[86.48985,23.35873],[86.48797,23.35884],[86.49222,23.36201],[86.49303,23.36559],[86.49622,23.36819],[86.49413,23.37017],[86.49557,23.37241],[86.49865,23.37269],[86.50037,23.37002],[86.50272,23.3713],[86.49729,23.37804],[86.49669,23.38164],[86.49455,23.38381],[86.49504,23.38559],[86.49932,23.38944],[86.50419,23.3895],[86.50724,23.39099],[86.51328,23.402],[86.51539,23.40349],[86.5182,23.4034],[86.51876,23.40735],[86.51574,23.41411],[86.516,23.42225],[86.51788,23.42565],[86.51912,23.42599],[86.52033,23.42441],[86.52061,23.42718],[86.52262,23.42812],[86.52288,23.43432],[86.51728,23.43937],[86.51797,23.44004],[86.51455,23.44496],[86.51452,23.44824],[86.5129,23.44998],[86.51166,23.44899],[86.50977,23.44991],[86.50802,23.44702],[86.50562,23.44619],[86.50484,23.44912],[86.49766,23.44939],[86.49345,23.44535],[86.48926,23.44531],[86.48938,23.44405],[86.48517,23.43963],[86.47909,23.44181],[86.4689,23.44223],[86.46415,23.44782],[86.46334,23.45514],[86.46008,23.4571],[86.46044,23.46729],[86.45845,23.46843],[86.45739,23.4757],[86.45515,23.4775],[86.45806,23.47902],[86.45483,23.48034],[86.45301,23.47885],[86.44778,23.4791],[86.44491,23.47409],[86.44145,23.47103],[86.43706,23.46961],[86.43359,23.46622],[86.43369,23.46186],[86.43863,23.45738],[86.43623,23.44977],[86.43313,23.44821],[86.42872,23.44804],[86.42127,23.44064],[86.41489,23.44039],[86.41141,23.44228],[86.40556,23.44168],[86.40225,23.44316],[86.4008,23.44678],[86.38283,23.45092],[86.38179,23.44663],[86.37724,23.44723],[86.37453,23.4496],[86.37157,23.44626],[86.36878,23.44572],[86.36651,23.44606],[86.35895,23.45169],[86.35593,23.45038],[86.35055,23.45213],[86.34983,23.44854],[86.3518,23.44284],[86.34985,23.44148],[86.34035,23.43954],[86.3368,23.44018],[86.33644,23.44283],[86.33404,23.44463],[86.33491,23.44658],[86.33079,23.44481],[86.32057,23.44329],[86.31786,23.43983],[86.31438,23.4396],[86.30533,23.43388],[86.30606,23.42958],[86.30929,23.42818],[86.31185,23.42445],[86.31448,23.42668],[86.31757,23.42647],[86.31572,23.42345],[86.31622,23.41963],[86.31794,23.41892],[86.31753,23.41603],[86.31187,23.41439],[86.31105,23.41162],[86.30904,23.41159],[86.30891116441475,23.411460690754517],[86.30007,23.41276],[86.29094,23.41759],[86.28959,23.42473],[86.291,23.42635],[86.28949,23.42906],[86.28162,23.42855],[86.27568,23.43038],[86.27183,23.42766],[86.26537,23.4304],[86.25658,23.43009],[86.25221,23.42677],[86.26025,23.41782],[86.25915,23.41331],[86.25148,23.41084],[86.24739,23.41114],[86.24561,23.4139],[86.24886,23.42247],[86.24399,23.42375],[86.23453,23.42096],[86.23377,23.41651],[86.23127,23.41279],[86.22428,23.41476],[86.21923,23.40428],[86.21951,23.39933],[86.21611,23.39565],[86.2176,23.39475],[86.2171,23.39288],[86.21366,23.38724],[86.21704,23.38462],[86.21723,23.38228],[86.21955,23.3804],[86.22058,23.37336],[86.21431,23.36865],[86.21221,23.36425]],[[86.31346,23.392],[86.32052911170103,23.39265209720237],[86.31992,23.39221],[86.31346,23.392]],[[86.32223427316002,23.393889714390333],[86.32730597304173,23.398590879120878],[86.32612,23.39671],[86.32223427316002,23.393889714390333]],[[86.32935000981864,23.400485579877557],[86.3297,23.40081],[86.33219,23.39928],[86.32935000981864,23.400485579877557]],[[86.33755230533383,23.377825899455516],[86.34588,23.36966],[86.33758,23.3772],[86.33755230533383,23.377825899455516]],[[86.43118057692308,23.27144326923077],[86.43236332300062,23.27164520148791],[86.4319,23.27122],[86.43118057692308,23.27144326923077]],[[86.4329483855254,23.272182125956853],[86.4339,23.27705],[86.43348,23.27267],[86.4329483855254,23.272182125956853]],[[86.46819,23.26828],[86.46894,23.26722],[86.4683476502038,23.264608275898578],[86.46819,23.26828]],[[86.46846496252982,23.261876033982983],[86.47013,23.26056],[86.4685,23.26106],[86.46846496252982,23.261876033982983]]]}},{"type":"Feature","properties":{"ac":"Raghunathpur","blocks":["Neturia","Raghunathpur I","Santuri"],"labelAt":[86.72506575562699,23.550708585209016]},"geometry":{"type":"Polygon","coordinates":[[[86.57899,23.47998],[86.58465,23.47248],[86.58944,23.46991],[86.59091,23.47442],[86.59592,23.47381],[86.59916,23.47638],[86.60607,23.47697],[86.6061,23.47846],[86.60837,23.47915],[86.61017,23.48151],[86.61017,23.48661],[86.61446,23.48896],[86.62269,23.48451],[86.62466,23.48994],[86.62142,23.49296],[86.6219,23.49715],[86.62812,23.50981],[86.63407,23.50568],[86.63434,23.50349],[86.63534,23.50379],[86.6356,23.49903],[86.6373,23.49628],[86.6405,23.49693],[86.64068,23.49459],[86.64261,23.49435],[86.64558,23.49631],[86.64663,23.49745],[86.64535,23.49914],[86.64617,23.50109],[86.65046,23.50338],[86.65424,23.50079],[86.65644,23.49693],[86.67302,23.49671],[86.67391,23.49901],[86.67574,23.49867],[86.67667,23.50012],[86.68117,23.49799],[86.68226,23.50435],[86.68502,23.50527],[86.68353,23.50817],[86.68515,23.50945],[86.68879,23.50819],[86.68767,23.51176],[86.68875,23.5118],[86.68837,23.51495],[86.68955,23.51485],[86.69131,23.51753],[86.69129,23.52349],[86.69569,23.52483],[86.69824,23.52412],[86.69922,23.52147],[86.70123,23.52283],[86.7022,23.51981],[86.7061,23.51895],[86.70976,23.51551],[86.70932,23.51421],[86.71129,23.51297],[86.71213,23.50989],[86.71503,23.50785],[86.71313,23.50774],[86.71165,23.50533],[86.71231,23.50059],[86.71019,23.4987],[86.71764,23.49793],[86.72255,23.49515],[86.72532,23.4921],[86.72664,23.48777],[86.73658,23.48368],[86.73619,23.47457],[86.73706,23.47394],[86.73454,23.47266],[86.73434,23.47123],[86.73953,23.46688],[86.74802,23.47474],[86.74973,23.47327],[86.75768,23.47327],[86.76363,23.47186],[86.76412,23.46569],[86.76797,23.46859],[86.77234,23.46652],[86.77773,23.46697],[86.77258,23.47613],[86.77245,23.47862],[86.76825,23.47974],[86.76525,23.48156],[86.76479,23.48337],[86.76031,23.48487],[86.75693,23.48934],[86.75873,23.4901],[86.75769,23.49322],[86.75387,23.4916],[86.75326,23.49238],[86.75865,23.4976],[86.77075,23.49537],[86.77366,23.49593],[86.77477,23.49668],[86.77434,23.50072],[86.77203,23.50957],[86.78004,23.51393],[86.78493,23.50986],[86.78798,23.50898],[86.78873,23.50597],[86.79215,23.50304],[86.80264,23.50828],[86.80669,23.50839],[86.81241,23.50506],[86.81761,23.4987],[86.82056,23.49277],[86.81693,23.49159],[86.81712,23.48613],[86.80867,23.48369],[86.80744,23.48072],[86.80822,23.47518],[86.82897,23.46505],[86.83852,23.46474],[86.84633,23.4665],[86.85706,23.46608],[86.86558,23.46199],[86.87275,23.47072],[86.87254,23.47334],[86.8705,23.47563],[86.87229,23.48358],[86.87105,23.48642],[86.87267,23.48795],[86.87312,23.49094],[86.8745,23.48925],[86.88163,23.48911],[86.88055,23.4907],[86.88244,23.49745],[86.89278,23.49423],[86.90621,23.49304],[86.90605,23.49561],[86.90395,23.49875],[86.90117,23.50181],[86.89774,23.5032],[86.897,23.50976],[86.89441,23.51161],[86.89377,23.5191],[86.89711,23.53048],[86.89588,23.53435],[86.8913,23.53831],[86.88445,23.5367],[86.88256,23.53768],[86.88616,23.55135],[86.88555,23.55726],[86.88334,23.55788],[86.87843,23.55565],[86.88018,23.5584],[86.87955,23.56139],[86.88059,23.56358],[86.87941,23.56712],[86.86438,23.56684],[86.86626,23.57035],[86.87036,23.57012],[86.88113,23.57549],[86.88323,23.57189],[86.88504,23.57346],[86.89215,23.57499],[86.89218,23.57662],[86.88774,23.58275],[86.88803,23.58591],[86.89067,23.5882],[86.89129,23.59156],[86.88827,23.59931],[86.88837,23.60234],[86.89486,23.60587],[86.89576,23.60911],[86.89518,23.61302],[86.89678,23.61402],[86.89701,23.61718],[86.89587,23.62429],[86.89445,23.62585],[86.89595,23.62635],[86.89498,23.62776],[86.90065,23.62889],[86.90226,23.63093],[86.90236,23.63814],[86.89532,23.65115],[86.88794,23.65566],[86.87976,23.65608],[86.86864,23.6602],[86.866,23.66057],[86.86251,23.66319],[86.85812,23.6698],[86.85799,23.67475],[86.84722,23.68346],[86.82742,23.68445],[86.80581,23.69586],[86.79866,23.68876],[86.78891,23.68783],[86.77076,23.68139],[86.74734,23.67879],[86.7444,23.68162],[86.74017,23.69323],[86.72911,23.69754],[86.71821,23.6992],[86.70533,23.69714],[86.69815,23.69361],[86.6756,23.68709],[86.65643,23.68429],[86.63484,23.67544],[86.61929,23.67465],[86.61911,23.66807],[86.62,23.66749],[86.61715,23.66592],[86.61967,23.66457],[86.61901,23.66276],[86.61763,23.66257],[86.61679,23.65719],[86.61313,23.6557],[86.61354,23.64585],[86.6203,23.64487],[86.62551,23.64044],[86.62549,23.63492],[86.62736,23.63355],[86.62672,23.63194],[86.62354,23.63227],[86.62029,23.62784],[86.62657,23.62747],[86.6277,23.62533],[86.63227,23.62533],[86.64093,23.62182],[86.64477,23.62252],[86.64418,23.6152],[86.64552,23.61037],[86.64892,23.60902],[86.65174,23.60525],[86.6604,23.60497],[86.65874,23.61335],[86.6574,23.61447],[86.65818,23.61954],[86.66482,23.62055],[86.66608,23.62245],[86.67325,23.62223],[86.67389,23.62449],[86.68331,23.62357],[86.68748,23.62571],[86.70359,23.62353],[86.69964,23.62388],[86.69962,23.61704],[86.69711,23.61509],[86.69661,23.61265],[86.69384,23.61332],[86.69467,23.61041],[86.69217,23.6089],[86.69068,23.60452],[86.68034,23.60463],[86.67309,23.60084],[86.66927,23.60267],[86.66644,23.6016],[86.66655,23.59517],[86.66487,23.59139],[86.66743,23.5896],[86.66441,23.58866],[86.66351,23.58618],[86.6672,23.57967],[86.66171,23.57657],[86.66231,23.56738],[86.66564,23.56617],[86.66892,23.56176],[86.66838,23.55897],[86.66614,23.55812],[86.66664,23.55543],[86.66512,23.55457],[86.65274,23.5559],[86.65282,23.55742],[86.64966,23.56049],[86.65152,23.56478],[86.64663,23.56535],[86.64815,23.5605],[86.64358,23.55728],[86.64092,23.5615],[86.63708,23.55983],[86.63583,23.56043],[86.63374,23.55568],[86.63191,23.55515],[86.62281,23.55674],[86.6221,23.55787],[86.61987,23.55558],[86.62008,23.55388],[86.61844,23.55365],[86.62043,23.55023],[86.61501,23.54744],[86.61135,23.54839],[86.60896,23.54527],[86.60815,23.54535],[86.60909,23.54695],[86.6039,23.54687],[86.60162,23.54861],[86.59472,23.54484],[86.59259,23.54622],[86.59141,23.5424],[86.59309,23.53942],[86.59264,23.53726],[86.59903,23.53356],[86.59863,23.53233],[86.59526,23.53298],[86.59561,23.53049],[86.59848,23.52858],[86.60046,23.53101],[86.60313,23.5303],[86.60769,23.52182],[86.6056,23.51985],[86.60213,23.5202],[86.59894,23.51057],[86.59082,23.5061],[86.59106,23.50061],[86.58795,23.49625],[86.58615,23.49052],[86.57992,23.48667],[86.57899,23.47998]],[[86.72566,23.64281],[86.72773,23.64272],[86.72796832314411,23.64234389628821],[86.72566,23.64281]],[[86.7285,23.6401],[86.72865597769517,23.641258691449814],[86.73029,23.63868],[86.7285,23.6401]],[[86.73328,23.58189],[86.74103,23.58603],[86.73330090903222,23.581416511592877],[86.73328,23.58189]],[[86.74104,23.58475],[86.74786,23.57985],[86.74755375206814,23.57953654623445],[86.74252,23.58317],[86.74104,23.58475]],[[86.74104,23.58475],[86.74195,23.58551],[86.74708,23.58756],[86.74104,23.58475]],[[86.76225,23.56489],[86.76247395594177,23.565414960946086],[86.76328,23.56255],[86.76225,23.56489]],[[86.7631818242532,23.567074230244877],[86.76443,23.57],[86.76530763887529,23.570318550406583],[86.7631818242532,23.567074230244877]],[[86.77138889741587,23.581919478148112],[86.77867,23.58189],[86.7714,23.58124],[86.77138889741587,23.581919478148112]],[[86.7727,23.58851],[86.77405,23.59229],[86.7742950246969,23.59235255949708],[86.7727,23.58851]],[[86.7740319557224,23.57379648144815],[86.77439,23.57466],[86.77613317056183,23.574549070964245],[86.7740319557224,23.57379648144815]],[[86.77566501426824,23.59270234406849],[86.77687,23.59301],[86.77977,23.59254],[86.77566501426824,23.59270234406849]],[[86.77665049824803,23.574734361580756],[86.77867,23.58189],[86.77675,23.57477],[86.77665049824803,23.574734361580756]],[[86.77986,23.59039],[86.78269,23.59027],[86.78348065336158,23.58946275950496],[86.77986,23.59039]],[[86.78479,23.52304],[86.78666,23.51408],[86.78625051205208,23.51308113344494],[86.78479,23.52304]],[[86.78534018645604,23.588986537614918],[86.78882,23.58949],[86.78642,23.58871],[86.78534018645604,23.588986537614918]],[[86.8447,23.627],[86.84548,23.63434],[86.84623,23.63675],[86.8447,23.627]],[[86.84876,23.63837],[86.84887,23.6406],[86.84929718584493,23.640594285139198],[86.84876,23.63837]],[[86.85054447205904,23.640577599036],[86.85186,23.64056],[86.85654,23.63826],[86.85054447205904,23.640577599036]],[[86.86151,23.64368],[86.86489998270508,23.645642182107622],[86.86458,23.6449],[86.86151,23.64368]],[[86.86559374813139,23.647251332471416],[86.86562386546161,23.64880022374047],[86.86602,23.64824],[86.86559374813139,23.647251332471416]]]}}]}